{
  "type": "FeatureCollection",
  "features": [
    {
      "type": "Feature",
      "properties": {
        "norad_id": 36681,
        "name": "FENGYUN 1C DEB",
        "group": "fengyun-1c-debris",
        "lat": 20.159978164899822,
        "lon": -15.032817563027464,
        "alt_km": 832.8662926380839,
        "timestamp": "2025-12-15T15:53:20.139249+00:00",
        "meta_object_name": "FENGYUN 1C DEB",
        "meta_object_id": "1999-025DZB",
        "meta_epoch": "2025-12-10T18:18:12.275712",
        "meta_mean_motion": 14.10256093,
        "meta_eccentricity": 0.00454371,
        "meta_inclination": 98.6973,
        "meta_ra_of_asc_node": 343.4508,
        "meta_arg_of_pericenter": 355.1749,
        "meta_mean_anomaly": 4.8979,
        "meta_ephemeris_type": 0,
        "meta_classification_type": "U",
        "meta_norad_cat_id": 36681,
        "meta_element_set_no": 999,
        "meta_rev_at_epoch": 72730,
        "meta_bstar": 0.00096687905,
        "meta_mean_motion_dot": 1.688e-05,
        "meta_mean_motion_ddot": 0,
        "tle_line1": "1 36681U 99025DZB 25344.76264208  .00001688  00000+0  96688-3 0  9994",
        "tle_line2": "2 36681  98.6973 343.4508 0045437 355.1749   4.8979 14.10256093727309"
      },
      "geometry": {
        "type": "Point",
        "coordinates": [
          -15.032817563027464,
          20.159978164899822
        ]
      }
    },
    {
      "type": "Feature",
      "properties": {
        "norad_id": 36682,
        "name": "FENGYUN 1C DEB",
        "group": "fengyun-1c-debris",
        "lat": 4.324876914325705,
        "lon": 73.76501801509697,
        "alt_km": 1009.4718024612639,
        "timestamp": "2025-12-15T15:53:20.139258+00:00",
        "meta_object_name": "FENGYUN 1C DEB",
        "meta_object_id": "1999-025DZC",
        "meta_epoch": "2025-12-06T04:55:28.030656",
        "meta_mean_motion": 13.7010637,
        "meta_eccentricity": 0.02343342,
        "meta_inclination": 98.485,
        "meta_ra_of_asc_node": 244.7666,
        "meta_arg_of_pericenter": 294.8114,
        "meta_mean_anomaly": 62.8827,
        "meta_ephemeris_type": 0,
        "meta_classification_type": "U",
        "meta_norad_cat_id": 36682,
        "meta_element_set_no": 999,
        "meta_rev_at_epoch": 61303,
        "meta_bstar": 0.0027042096,
        "meta_mean_motion_dot": 2.849e-05,
        "meta_mean_motion_ddot": 0,
        "tle_line1": "1 36682U 99025DZC 25340.20518554  .00002849  00000+0  27042-2 0  9993",
        "tle_line2": "2 36682  98.4850 244.7666 0234334 294.8114  62.8827 13.70106370613038"
      },
      "geometry": {
        "type": "Point",
        "coordinates": [
          73.76501801509697,
          4.324876914325705
        ]
      }
    },
    {
      "type": "Feature",
      "properties": {
        "norad_id": 36684,
        "name": "FENGYUN 1C DEB",
        "group": "fengyun-1c-debris",
        "lat": -56.27918227897189,
        "lon": 96.86644949486053,
        "alt_km": 596.3871793728522,
        "timestamp": "2025-12-15T15:53:20.139267+00:00",
        "meta_object_name": "FENGYUN 1C DEB",
        "meta_object_id": "1999-025DZE",
        "meta_epoch": "2025-12-14T12:52:10.183872",
        "meta_mean_motion": 14.96632196,
        "meta_eccentricity": 0.00192468,
        "meta_inclination": 99.4551,
        "meta_ra_of_asc_node": 81.0489,
        "meta_arg_of_pericenter": 103.5298,
        "meta_mean_anomaly": 256.8063,
        "meta_ephemeris_type": 0,
        "meta_classification_type": "U",
        "meta_norad_cat_id": 36684,
        "meta_element_set_no": 999,
        "meta_rev_at_epoch": 65928,
        "meta_bstar": 0.003779143,
        "meta_mean_motion_dot": 0.00043416,
        "meta_mean_motion_ddot": 0,
        "tle_line1": "1 36684U 99025DZE 25348.53622898  .00043416  00000+0  37791-2 0  9993",
        "tle_line2": "2 36684  99.4551  81.0489 0019246 103.5298 256.8063 14.96632196659289"
      },
      "geometry": {
        "type": "Point",
        "coordinates": [
          96.86644949486053,
          -56.27918227897189
        ]
      }
    },
    {
      "type": "Feature",
      "properties": {
        "norad_id": 36686,
        "name": "FENGYUN 1C DEB",
        "group": "fengyun-1c-debris",
        "lat": -20.391535584246714,
        "lon": -175.2176048369287,
        "alt_km": 611.2210183415282,
        "timestamp": "2025-12-15T15:53:20.139276+00:00",
        "meta_object_name": "FENGYUN 1C DEB",
        "meta_object_id": "1999-025DZG",
        "meta_epoch": "2025-12-14T18:50:54.350592",
        "meta_mean_motion": 14.77241014,
        "meta_eccentricity": 0.01050818,
        "meta_inclination": 99.002,
        "meta_ra_of_asc_node": 180.4264,
        "meta_arg_of_pericenter": 47.0188,
        "meta_mean_anomaly": 313.9769,
        "meta_ephemeris_type": 0,
        "meta_classification_type": "U",
        "meta_norad_cat_id": 36686,
        "meta_element_set_no": 999,
        "meta_rev_at_epoch": 65882,
        "meta_bstar": 0.00059450442,
        "meta_mean_motion_dot": 4.55e-05,
        "meta_mean_motion_ddot": 0,
        "tle_line1": "1 36686U 99025DZG 25348.78535128  .00004550  00000+0  59450-3 0  9994",
        "tle_line2": "2 36686  99.0020 180.4264 0105081  47.0188 313.9769 14.77241014658827"
      },
      "geometry": {
        "type": "Point",
        "coordinates": [
          -175.2176048369287,
          -20.391535584246714
        ]
      }
    },
    {
      "type": "Feature",
      "properties": {
        "norad_id": 36687,
        "name": "FENGYUN 1C DEB",
        "group": "fengyun-1c-debris",
        "lat": 79.96324626800835,
        "lon": -43.9361965514757,
        "alt_km": 933.0828838259458,
        "timestamp": "2025-12-15T15:53:20.139285+00:00",
        "meta_object_name": "FENGYUN 1C DEB",
        "meta_object_id": "1999-025DZH",
        "meta_epoch": "2025-12-09T12:23:51.138240",
        "meta_mean_motion": 14.04528107,
        "meta_eccentricity": 0.00903007,
        "meta_inclination": 98.7162,
        "meta_ra_of_asc_node": 70.0789,
        "meta_arg_of_pericenter": 274.4984,
        "meta_mean_anomaly": 84.5872,
        "meta_ephemeris_type": 0,
        "meta_classification_type": "U",
        "meta_norad_cat_id": 36687,
        "meta_element_set_no": 999,
        "meta_rev_at_epoch": 62677,
        "meta_bstar": 0.00041265981,
        "meta_mean_motion_dot": 6.4e-06,
        "meta_mean_motion_ddot": 0,
        "tle_line1": "1 36687U 99025DZH 25343.51656410  .00000640  00000+0  41266-3 0  9991",
        "tle_line2": "2 36687  98.7162  70.0789 0090300 274.4984  84.5872 14.04528107626770"
      },
      "geometry": {
        "type": "Point",
        "coordinates": [
          -43.9361965514757,
          79.96324626800835
        ]
      }
    },
    {
      "type": "Feature",
      "properties": {
        "norad_id": 36689,
        "name": "FENGYUN 1C DEB",
        "group": "fengyun-1c-debris",
        "lat": -62.40649726378741,
        "lon": -100.2346121481942,
        "alt_km": 763.0260608551016,
        "timestamp": "2025-12-15T15:53:20.139294+00:00",
        "meta_object_name": "FENGYUN 1C DEB",
        "meta_object_id": "1999-025DZK",
        "meta_epoch": "2025-11-28T10:04:14.213280",
        "meta_mean_motion": 13.74189275,
        "meta_eccentricity": 0.03131537,
        "meta_inclination": 98.4796,
        "meta_ra_of_asc_node": 227.8431,
        "meta_arg_of_pericenter": 334.7216,
        "meta_mean_anomaly": 23.8887,
        "meta_ephemeris_type": 0,
        "meta_classification_type": "U",
        "meta_norad_cat_id": 36689,
        "meta_element_set_no": 999,
        "meta_rev_at_epoch": 58016,
        "meta_bstar": 0.0027905602,
        "meta_mean_motion_dot": 3.71e-05,
        "meta_mean_motion_ddot": 0,
        "tle_line1": "1 36689U 99025DZK 25332.41960895  .00003710  00000+0  27906-2 0  9990",
        "tle_line2": "2 36689  98.4796 227.8431 0313153 334.7216  23.8887 13.74189275580169"
      },
      "geometry": {
        "type": "Point",
        "coordinates": [
          -100.2346121481942,
          -62.40649726378741
        ]
      }
    },
    {
      "type": "Feature",
      "properties": {
        "norad_id": 36691,
        "name": "FENGYUN 1C DEB",
        "group": "fengyun-1c-debris",
        "lat": 70.83150467892635,
        "lon": -164.41587833450433,
        "alt_km": 908.1557883985488,
        "timestamp": "2025-12-15T15:53:20.139303+00:00",
        "meta_object_name": "FENGYUN 1C DEB",
        "meta_object_id": "1999-025DZM",
        "meta_epoch": "2025-12-08T17:50:07.073952",
        "meta_mean_motion": 14.07105067,
        "meta_eccentricity": 0.01290803,
        "meta_inclination": 98.6374,
        "meta_ra_of_asc_node": 343.0423,
        "meta_arg_of_pericenter": 246.8073,
        "meta_mean_anomaly": 111.9457,
        "meta_ephemeris_type": 0,
        "meta_classification_type": "U",
        "meta_norad_cat_id": 36691,
        "meta_element_set_no": 999,
        "meta_rev_at_epoch": 59553,
        "meta_bstar": 0.0032098608,
        "meta_mean_motion_dot": 5.753e-05,
        "meta_mean_motion_ddot": 0,
        "tle_line1": "1 36691U 99025DZM 25342.74313743  .00005753  00000+0  32099-2 0  9992",
        "tle_line2": "2 36691  98.6374 343.0423 0129080 246.8073 111.9457 14.07105067595539"
      },
      "geometry": {
        "type": "Point",
        "coordinates": [
          -164.41587833450433,
          70.83150467892635
        ]
      }
    }
  ]
}